{"type": "FeatureCollection", "features": [ {"type": "Feature", "properties": {"norad_id": 43010, "name": "FENGYUN 3D", "group": "weather", "lat": 50.227242474732805, "lon": 138.67127203205382, "alt_km": 821.6074954300993, "timestamp": "2025-12-07T11:27:49.630131+00:00", "meta": {"OBJECT_NAME": "FENGYUN 3D", "OBJECT_ID": "2017-072A", "EPOCH": "2025-12-06T21:19:37.955136", "MEAN_MOTION": 14.19681264, "ECCENTRICITY": 7.409e-05, "INCLINATION": 98.9886, "RA_OF_ASC_NODE": 307.1115, "ARG_OF_PERICENTER": 201.3715, "MEAN_ANOMALY": 158.7429, "EPHEMERIS_TYPE": 0, "CLASSIFICATION_TYPE": "U", "NORAD_CAT_ID": 43010, "ELEMENT_SET_NO": 999, "REV_AT_EPOCH": 41770, "BSTAR": 0.00012145711, "MEAN_MOTION_DOT": 2.11e-06, "MEAN_MOTION_DDOT": 0}, "tle": {"line1": "1 43010U 17072A   25340.88863374  .00000211  00000+0  12146-3 0  9996", "line2": "2 43010  98.9886 307.1115 0000740 201.3715 158.7429 14.19681264417703"}}, "geometry": {"type": "Point", "coordinates": [138.67127203205382, 50.227242474732805]}}, {"type": "Feature", "properties": {"norad_id": 43013, "name": "NOAA 20 (JPSS-1)", "group": "weather", "lat": -73.32307320437327, "lon": -51.194503228308534, "alt_km": 835.7415620280981, "timestamp": "2025-12-07T11:27:49.630142+00:00", "meta": {"OBJECT_NAME": "NOAA 20 (JPSS-1)", "OBJECT_ID": "2017-073A", "EPOCH": "2025-12-06T22:17:13.145568", "MEAN_MOTION": 14.19523249, "ECCENTRICITY": 0.00021096, "INCLINATION": 98.759, "RA_OF_ASC_NODE": 277.2892, "ARG_OF_PERICENTER": 95.4546, "MEAN_ANOMALY": 264.687, "EPHEMERIS_TYPE": 0, "CLASSIFICATION_TYPE": "U", "NORAD_CAT_ID": 43013, "ELEMENT_SET_NO": 999, "REV_AT_EPOCH": 41719, "BSTAR": 0.00010705697, "MEAN_MOTION_DOT": 1.82e-06, "MEAN_MOTION_DDOT": 0}, "tle": {"line1": "1 43013U 17073A   25340.92862437  .00000182  00000+0  10706-3 0  9991", "line2": "2 43013  98.7590 277.2892 0002109  95.4546 264.6870 14.19523249417198"}}, "geometry": {"type": "Point", "coordinates": [-51.194503228308534, -73.32307320437327]}}, {"type": "Feature", "properties": {"norad_id": 43226, "name": "GOES 17", "group": "weather", "lat": 0.41759172823976753, "lon": 158.91317066387882, "alt_km": 35792.3928302844, "timestamp": "2025-12-07T11:27:49.630154+00:00", "meta": {"OBJECT_NAME": "GOES 17", "OBJECT_ID": "2018-022A", "EPOCH": "2025-12-06T21:48:02.437920", "MEAN_MOTION": 1.0027089, "ECCENTRICITY": 0.00035144, "INCLINATION": 0.4441, "RA_OF_ASC_NODE": 89.2288, "ARG_OF_PERICENTER": 183.9619, "MEAN_ANOMALY": 40.2612, "EPHEMERIS_TYPE": 0, "CLASSIFICATION_TYPE": "U", "NORAD_CAT_ID": 43226, "ELEMENT_SET_NO": 999, "REV_AT_EPOCH": 2849, "BSTAR": 0, "MEAN_MOTION_DOT": -1.77e-06, "MEAN_MOTION_DDOT": 0}, "tle": {"line1": "1 43226U 18022A   25340.90836155 -.00000177  00000+0  00000+0 0  9995", "line2": "2 43226   0.4441  89.2288 0003514 183.9619  40.2612  1.00270890 28494"}}, "geometry": {"type": "Point", "coordinates": [158.91317066387882, 0.41759172823976753]}}, {"type": "Feature", "properties": {"norad_id": 43491, "name": "FENGYUN 2H", "group": "weather", "lat": -2.3322572251160802, "lon": -32.171108787919685, "alt_km": 35784.62468645308, "timestamp": "2025-12-07T11:27:49.630166+00:00", "meta": {"OBJECT_NAME": "FENGYUN 2H", "OBJECT_ID": "2018-050A", "EPOCH": "2025-12-06T22:25:51.770208", "MEAN_MOTION": 1.00271276, "ECCENTRICITY": 0.00029164, "INCLINATION": 2.5352, "RA_OF_ASC_NODE": 81.3937, "ARG_OF_PERICENTER": 165.2651, "MEAN_ANOMALY": 245.1354, "EPHEMERIS_TYPE": 0, "CLASSIFICATION_TYPE": "U", "NORAD_CAT_ID": 43491, "ELEMENT_SET_NO": 999, "REV_AT_EPOCH": 2751, "BSTAR": 0, "MEAN_MOTION_DOT": -1.25e-06, "MEAN_MOTION_DDOT": 0}, "tle": {"line1": "1 43491U 18050A   25340.93462697 -.00000125  00000+0  00000+0 0  9992", "line2": "2 43491   2.5352  81.3937 0002916 165.2651 245.1354  1.00271276 27510"}}, "geometry": {"type": "Point", "coordinates": [-32.171108787919685, -2.3322572251160802]}}, {"type": "Feature", "properties": {"norad_id": 43689, "name": "METOP-C", "group": "weather", "lat": 27.51348162662452, "lon": 34.75664221777063, "alt_km": 818.0145921721169, "timestamp": "2025-12-07T11:27:49.630179+00:00", "meta": {"OBJECT_NAME": "METOP-C", "OBJECT_ID": "2018-087A", "EPOCH": "2025-12-06T21:49:07.543776", "MEAN_MOTION": 14.21508446, "ECCENTRICITY": 0.00015787, "INCLINATION": 98.6937, "RA_OF_ASC_NODE": 38.7679, "ARG_OF_PERICENTER": 52.1262, "MEAN_ANOMALY": 308.0058, "EPHEMERIS_TYPE": 0, "CLASSIFICATION_TYPE": "U", "NORAD_CAT_ID": 43689, "ELEMENT_SET_NO": 999, "REV_AT_EPOCH": 36751, "BSTAR": 0.00014605535, "MEAN_MOTION_DOT": 2.76e-06, "MEAN_MOTION_DDOT": 0}, "tle": {"line1": "1 43689U 18087A   25340.90911509  .00000276  00000+0  14606-3 0  9996", "line2": "2 43689  98.6937  38.7679 0001578  52.1262 308.0058 14.21508446367514"}}, "geometry": {"type": "Point", "coordinates": [34.75664221777063, 27.51348162662452]}}, {"type": "Feature", "properties": {"norad_id": 43823, "name": "GEO-KOMPSAT-2A", "group": "weather", "lat": -0.03418651941668299, "lon": 16.720176522234684, "alt_km": 35787.485036071485, "timestamp": "2025-12-07T11:27:49.630191+00:00", "meta": {"OBJECT_NAME": "GEO-KOMPSAT-2A", "OBJECT_ID": "2018-100A", "EPOCH": "2025-12-06T20:31:38.555040", "MEAN_MOTION": 1.00271607, "ECCENTRICITY": 2.994e-05, "INCLINATION": 0.0561, "RA_OF_ASC_NODE": 121.3471, "ARG_OF_PERICENTER": 73.7438, "MEAN_ANOMALY": 316.9783, "EPHEMERIS_TYPE": 0, "CLASSIFICATION_TYPE": "U", "NORAD_CAT_ID": 43823, "ELEMENT_SET_NO": 999, "REV_AT_EPOCH": 2570, "BSTAR": 0, "MEAN_MOTION_DOT": -3.38e-06, "MEAN_MOTION_DDOT": 0}, "tle": {"line1": "1 43823U 18100A   25340.85530735 -.00000338  00000+0  00000+0 0  9993", "line2": "2 43823   0.0561 121.3471 0000299  73.7438 316.9783  1.00271607 25700"}}, "geometry": {"type": "Point", "coordinates": [16.720176522234684, -0.03418651941668299]}}, {"type": "Feature", "properties": {"norad_id": 44387, "name": "METEOR-M2 2", "group": "weather", "lat": 48.27700953823688, "lon": -48.974993392397685, "alt_km": 806.7723541819096, "timestamp": "2025-12-07T11:27:49.630203+00:00", "meta": {"OBJECT_NAME": "METEOR-M2 2", "OBJECT_ID": "2019-038A", "EPOCH": "2025-12-06T23:25:55.801056", "MEAN_MOTION": 14.242878, "ECCENTRICITY": 0.00010743, "INCLINATION": 98.8967, "RA_OF_ASC_NODE": 320.6349, "ARG_OF_PERICENTER": 160.1243, "MEAN_ANOMALY": 199.9977, "EPHEMERIS_TYPE": 0, "CLASSIFICATION_TYPE": "U", "NORAD_CAT_ID": 44387, "ELEMENT_SET_NO": 999, "REV_AT_EPOCH": 33393, "BSTAR": 0.00015761375, "MEAN_MOTION_DOT": 3.18e-06, "MEAN_MOTION_DDOT": 0}, "tle": {"line1": "1 44387U 19038A   25340.97634029  .00000318  00000+0  15761-3 0  9995", "line2": "2 44387  98.8967 320.6349 0001074 160.1243 199.9977 14.24287800333939"}}, "geometry": {"type": "Point", "coordinates": [-48.974993392397685, 48.27700953823688]}}, {"type": "Feature", "properties": {"norad_id": 47719, "name": "ARKTIKA-M 1", "group": "weather", "lat": 48.72077201323958, "lon": -130.39669114609302, "alt_km": 25616.91640781297, "timestamp": "2025-12-07T11:27:49.630216+00:00", "meta": {"OBJECT_NAME": "ARKTIKA-M 1", "OBJECT_ID": "2021-016A", "EPOCH": "2025-12-01T02:41:41.634816", "MEAN_MOTION": 2.00613156, "ECCENTRICITY": 0.71974708, "INCLINATION": 63.1756, "RA_OF_ASC_NODE": 85.6045, "ARG_OF_PERICENTER": 269.084, "MEAN_ANOMALY": 15.7076, "EPHEMERIS_TYPE": 0, "CLASSIFICATION_TYPE": "U", "NORAD_CAT_ID": 47719, "ELEMENT_SET_NO": 999, "REV_AT_EPOCH": 3481, "BSTAR": 0, "MEAN_MOTION_DOT": -1.2e-07, "MEAN_MOTION_DDOT": 0}, "tle": {"line1": "1 47719U 21016A   25335.11228744 -.00000012  00000+0  00000+0 0  9997", "line2": "2 47719  63.1756  85.6045 7197470 269.0840  15.7076  2.00613156 34816"}}, "geometry": {"type": "Point", "coordinates": [-130.39669114609302, 48.72077201323958]}}, {"type": "Feature", "properties": {"norad_id": 49008, "name": "FENGYUN 3E", "group": "weather", "lat": 81.03364697467174, "lon": -120.55993334029561, "alt_km": 818.6962795300024, "timestamp": "2025-12-07T11:27:49.630231+00:00", "meta": {"OBJECT_NAME": "FENGYUN 3E", "OBJECT_ID": "2021-062A", "EPOCH": "2025-12-06T23:11:37.353984", "MEAN_MOTION": 14.19878856, "ECCENTRICITY": 6.207e-05, "INCLINATION": 98.7476, "RA_OF_ASC_NODE": 341.5561, "ARG_OF_PERICENTER": 302.8777, "MEAN_ANOMALY": 57.234, "EPHEMERIS_TYPE": 0, "CLASSIFICATION_TYPE": "U", "NORAD_CAT_ID": 49008, "ELEMENT_SET_NO": 999, "REV_AT_EPOCH": 22930, "BSTAR": 5.2421276e-05, "MEAN_MOTION_DOT": 6.7e-07, "MEAN_MOTION_DDOT": 0}, "tle": {"line1": "1 49008U 21062A   25340.96640456  .00000067  00000+0  52421-4 0  9996", "line2": "2 49008  98.7476 341.5561 0000620 302.8777  57.2340 14.19878856229305"}}, "geometry": {"type": "Point", "coordinates": [-120.55993334029561, 81.03364697467174]}}, {"type": "Feature", "properties": {"norad_id": 51850, "name": "GOES 18", "group": "weather", "lat": -0.0032613691571810495, "lon": 111.45178534729882, "alt_km": 35789.757073850065, "timestamp": "2025-12-07T11:27:49.630243+00:00", "meta": {"OBJECT_NAME": "GOES 18", "OBJECT_ID": "2022-021A", "EPOCH": "2025-12-06T18:09:00.917568", "MEAN_MOTION": 1.00272025, "ECCENTRICITY": 9.081e-05, "INCLINATION": 0.0194, "RA_OF_ASC_NODE": 154.5572, "ARG_OF_PERICENTER": 142.6729, "MEAN_ANOMALY": 273.8135, "EPHEMERIS_TYPE": 0, "CLASSIFICATION_TYPE": "U", "NORAD_CAT_ID": 51850, "ELEMENT_SET_NO": 999, "REV_AT_EPOCH": 466, "BSTAR": 0, "MEAN_MOTION_DOT": 1.03e-06, "MEAN_MOTION_DDOT": 0}, "tle": {"line1": "1 51850U 22021A   25340.75626062  .00000103  00000+0  00000+0 0  9996", "line2": "2 51850   0.0194 154.5572 0000908 142.6729 273.8135  1.00272025  4666"}}, "geometry": {"type": "Point", "coordinates": [111.45178534729882, -0.0032613691571810495]}}]}